new Satellite("1 00694U 63047A   22326.52147533  .00001212  00000+0  14482-3 0  9991",  "2 00694  30.3586  37.7686 0579877 342.7802  15.3858 14.04087694961911"),
new Satellite("1 00733U 64002A   22326.39154958  .00000157  00000+0  74716-4 0  9995",  "2 00733  99.0006 261.4465 0033900 161.3419 198.9015 14.32611156 65922"),
new Satellite("1 00877U 64053B   22326.50550196  .00000162  00000+0  57977-4 0  9993",  "2 00877  65.0780 253.5049 0053828  39.7319 320.7703 14.59623561 91088"),
new Satellite("1 02802U 67045B   22326.57307011  .00000190  00000+0  62085-4 0  9997",  "2 02802  74.0133  71.9517 0066269   8.1039 352.1171 14.43999135915308"),
new Satellite("1 03230U 68040B   22326.14458832  .00001429  00000+0  14402-3 0  9995",  "2 03230  74.0360 229.4430 0028888   9.8098 350.3642 14.91914397909898"),
new Satellite("1 03597U 68110A   22325.89475842  .00000145  00000+0  45322-4 0  9990",  "2 03597  34.9922 139.3055 0006490 274.3651  85.6298 14.46024822844713"),
new Satellite("1 03669U 69009A   22326.35963365  .00000234  00000+0  16261-3 0  9990",  "2 03669  88.4123 288.0028 1711481 356.9136   2.2317 11.29596898212622"),
new Satellite("1 04327U 70009A   22326.54507799  .00000012  00000+0  71610-4 0  9994",  "2 04327  99.1292 324.4254 0005111  15.4981  94.9722 13.58533872616517"),
new Satellite("1 04814U 70113B   22326.51322938  .00009191  00000+0  20044-3 0  9999",  "2 04814  81.1374 166.3074 0021051  80.9756 279.3869 15.43838350839615"),
new Satellite("1 05118U 71028B   22326.58983117  .00003187  00000+0  15275-3 0  9991",  "2 05118  81.2576  34.9657 0044679 107.0488 253.5644 15.17706805804324"),
new Satellite("1 05560U 71089A   22326.48057146  .00000340  00000+0  90925-4 0  9996",  "2 05560  92.7126 123.1815 0016338 173.7135 186.4278 14.48404209688008"),
new Satellite("1 05730U 71119B   22326.44179676  .00006515  00000+0  40554-3 0  9990",  "2 05730  73.8889 215.4748 0662608  65.5922 301.2877 14.10293753484276"),
new Satellite("1 06073U 72023E   22326.50527330  .00055920  66588-5  17297-3 0  9998",  "2 06073  52.0183 130.1532 1087338 187.7170 170.5741 13.70272941620710"),
new Satellite("1 06153U 72065A   22326.20268523  .00000248  00000+0  57475-4 0  9993",  "2 06153  35.0074 303.9793 0006280  46.9046  67.0467 14.58186171670325"),



1 12585U 81065A   22326.48830592  .00004181  00000+0  16700-3 0  9995
2 12585  97.5842 333.3895 0011428 308.6782  51.3432 15.25657284258257
SL-3 R/B                
1 12904U 81103B   22326.54415855  .00000897  00000+0  57306-4 0  9999
2 12904  81.1751 167.1557 0027520  13.6446 346.5515 15.07346701791238
SL-3 R/B                
1 13068U 82013B   22326.50754281  .00002307  00000+0  14364-3 0  9991
2 13068  81.2044 115.0785 0025535 236.4506 123.4280 15.08956865222191
SL-3 R/B                
1 13154U 82039B   22326.53765762  .00001319  00000+0  10292-3 0  9992
2 13154  81.1812 148.4786 0038362 308.1532  51.6232 14.99951405200704
SL-3 R/B                
1 13403U 82079B   22326.53426445  .00002488  00000+0  15463-3 0  9998
2 13403  81.1649 154.1008 0031187 217.2757 142.6304 15.08903182195419
COSMOS 1408             
1 13552U 82092A   22326.44728771  .00006192  00000+0  17741-3 0  9992
2 13552  82.5695 109.7871 0023518 262.4342  97.4230 15.35413869 56964
SL-14 R/B               
1 13553U 82092B   22326.36051126  .00000280  00000+0  30222-4 0  9999
2 13553  82.5694 185.1235 0020525 330.7913 204.2012 14.84522762150275
SL-3 R/B                
1 13819U 83010B   22326.49007285  .00002456  00000+0  11706-3 0  9998
2 13819  81.1154 359.9647 0029999 191.2974 168.7587 15.18345096173991
COSMOS 1455             
1 14032U 83037A   22326.43751036  .00005011  00000+0  21616-3 0  9990
2 14032  82.5123 283.4542 0014671 204.2353 155.8195 15.22213736162251
SL-3 R/B                
1 14208U 83075B   22326.48550101  .00002529  00000+0  14258-3 0  9997
2 14208  97.5025 298.8568 0038267 123.3641 237.1262 15.13483141146901
COSMOS 1500             
1 14372U 83099A   22326.57025291  .00003748  00000+0  15779-3 0  9995
2 14372  82.5136 178.0487 0014746  19.4156 340.7639 15.22959048138668
COSMOS 1536             
1 14699U 84013A   22326.40178717  .00001501  00000+0  97622-4 0  9991
2 14699  82.5249 206.7073 0014254 112.4319 247.8420 15.07201601 90518
COSMOS 1544             
1 14819U 84027A   22326.09422926  .00008921  00000+0  25971-3 0  9999
2 14819  82.4797 185.8301 0009060 231.1022 128.9414 15.35214628118561
SL-14 R/B               
1 14820U 84027B   22326.40752392  .00000356  00000+0  39891-4 0  9990
2 14820  82.5405 291.5363 0018504 357.7618   2.3511 14.83935236 69062
ERBS                    
1 15354U 84108B   22325.76440926  .00141268  00000+0  50965-3 0  9990
2 15354  56.9916 134.0602 0003777  29.1707 330.9578 15.87848861105829
SL-8 R/B                
1 15483U 85006B   22326.46069414  .00000205  00000+0  78478-4 0  9993
2 15483  74.0448 312.8466 0018384 168.9528 305.8508 14.36537519981161
COSMOS 1626             
1 15494U 85009A   22326.40106950  .00006556  00000+0  22866-3 0  9993
2 15494  82.4790  58.4548 0001307 310.9063  49.2063 15.29437246 70747
SL-12 R/B(2)            
1 15772U 85042D   22326.52315153  .00000127  00000+0  79270-4 0  9999
2 15772  71.1070 108.3733 0036171 201.1673 225.0043 14.21374300943392
SL-14 R/B               
1 15945U 85069B   22326.40009671  .00000363  00000+0  40297-4 0  9991
2 15945  82.5287  74.4643 0018823 208.8054 151.2124 14.84324071994232
SL-16 R/B               
1 16182U 85097B   22326.54703149 -.00000134  00000+0 -43610-4 0  9992
2 16182  71.0015 152.8747 0009840 286.0360 136.7838 14.16299075916853
SL-14 R/B               
1 16496U 86006B   22326.45519767  .00000362  00000+0  40056-4 0  9994
2 16496  82.5226 309.7937 0019190   4.2590 110.6228 14.84420189970569
COSMOS 1743             
1 16719U 86034A   22326.54426625  .00003020  00000+0  14508-3 0  9999
2 16719  82.5525 205.5350 0009370 236.4386 170.8186 15.18434703996027
SL-14 R/B               
1 16792U 86046B   22326.53871487  .00000352  00000+0  39728-4 0  9999
2 16792  82.4804 134.8723 0022780 236.4732 123.4307 14.83520639947895
SL-14 R/B               
1 16882U 86055B   22326.55417736  .00000292  00000+0  32493-4 0  9999
2 16882  82.5212 175.5697 0019547 350.7652  70.5604 14.83515480940892
AJISAI (EGS)            
1 16908U 86061A   22326.55089111 -.00000066  00000+0  21957-3 0  9999
2 16908  50.0070 192.9102 0011519 104.0191 336.5680 12.44498186318184
COSMOS 1812             
1 17295U 87003A   22326.53430813  .00003931  00000+0  18597-3 0  9992
2 17295  82.5127 349.0424 0004754  95.4921 264.6856 15.19089119959281
SL-14 R/B               
1 17567U 87024B   22326.53102777  .00000321  00000+0  35644-4 0  9995
2 17567  82.5268 141.4432 0017556 279.9196  80.0038 14.84041912909635
COSMOS 1833             
1 17589U 87027A   22326.44581977 -.00000216  00000+0 -89744-4 0  9990
2 17589  70.9155 334.9225 0028350 214.1734 145.7563 14.12905966840340
SL-16 R/B               
1 17590U 87027B   22326.37208398  .00000235  00000+0  14128-3 0  9999
2 17590  71.0024 291.4594 0004715 184.8999 175.2079 14.16845029844925
SL-14 R/B               
1 17912U 87038B   22326.53030431  .00000285  00000+0  31723-4 0  9994
2 17912  82.5015 348.2024 0020372 170.8182 189.3409 14.83315864900755
COSMOS 1844             
1 17973U 87041A   22326.51915346 -.00000276  00000+0 -11897-3 0  9991
2 17973  70.8996  51.1756 0029921  24.0052 336.2456 14.14169192833460
SL-14 R/B               
1 18153U 87055B   22326.30989643  .00000282  00000+0  31241-4 0  9996
2 18153  82.5027  41.3907 0022150  30.0331 330.2149 14.83572077891406
COSMOS 1867             
1 18187U 87060A   22326.56077699 -.00000082  00000+0  67688-5 0  9990
2 18187  65.0112  75.1086 0014568 260.8134  99.1302 14.31163341847737
COSMOS 1892             
1 18421U 87088A   22326.46918353  .00004368  00000+0  19658-3 0  9993
2 18421  82.4965 113.2212 0012652 213.4574 146.5863 15.20768794919287
SL-14 R/B               
1 18749U 88001B   22326.36849004  .00000309  00000+0  34649-4 0  9996
2 18749  82.5154 245.4182 0017138 250.4227 109.5138 14.83498517863491
COSMOS 1933             
1 18958U 88020A   22326.49674294  .00001216  00000+0  83200-4 0  9995
2 18958  82.5290 347.4892 0011124  14.6275 345.5272 15.05199437868576
SL-3 R/B                
1 19046U 88032B   22326.53547593  .00002504  00000+0  18115-3 0  9996
2 19046  97.4013 318.6358 0037377  60.8779 299.6180 15.04333401870378
SL-16 R/B               
1 19120U 88039B   22326.54036290  .00000130  00000+0  84717-4 0  9999
2 19120  71.0142  91.8832 0021126  19.6102 340.5830 14.19271678787654
COSMOS 1953             
1 19210U 88050A   22326.30022227  .00002535  00000+0  16217-3 0  9991
2 19210  82.5117 267.1450 0013446 346.0251  14.0603 15.08115891855341
SL-8 R/B                
1 19257U 88053B   22326.02313453  .00000236  00000+0  87057-4 0  9995
2 19257  74.0469 168.7782 0021420 287.0478 225.4007 14.37670426803540
COSMOS 1975             
1 19573U 88093A   22326.52387243  .00003101  00000+0  20447-3 0  9996
2 19573  82.5196 223.1124 0015134  18.8377 341.3408 15.07056557837081
SL-14 R/B               
1 19574U 88093B   22326.45557008  .00000318  00000+0  35447-4 0  9991
2 19574  82.5317  89.5727 0022736  55.9108  11.4589 14.83606607822517
SL-16 R/B               
1 19650U 88102B   22326.01414810  .00000304  00000+0  17876-3 0  9992
2 19650  70.9985 163.4952 0012904  36.0936 324.1055 14.15850261756500
INTERCOSMOS 24          
1 20261U 89080A   22326.50656681  .00000526  00000+0  15388-3 0  9998
2 20261  82.6007 165.3952 1200358 198.1932 157.2457 12.56591369515503
SL-14 R/B               
1 20262U 89080C   22326.45950749  .00000315  00000+0  87203-4 0  9997
2 20262  82.5959 225.0543 1236534  52.2512 318.4272 12.49127839509843
DELTA 2 R/B(1)          
1 20303U 89085B   22325.83217967  .00019093  00000+0  41263-3 0  9995
2 20303  35.6354 163.8798 0068210 194.4609 165.4169 15.41120575804159
